<gpx xmlns="http://www.topografix.com/GPX/1/1" xmlns:xsi="http://www.w3.org/2001/XMLSchema-instance" creator="https://trekkingmania.ru" xsi:schemaLocation="http://www.topografix.com/GPX/1/1 http://www.topografix.com/GPX/1/1/gpx.xsd" version="1.1">
<metadata>
<time>2025-04-10T04:25:29.148Z</time>
</metadata>
<trk>
<name>New track</name>
<trkseg>
<trkpt lat="54.728056" lon="83.029545">
<time>1970-01-01T00:00:01.000Z</time>
</trkpt>
<trkpt lat="54.727653" lon="83.028837">
<time>1970-01-01T00:00:01.000Z</time>
</trkpt>
<trkpt lat="54.727260" lon="83.027812">
<time>1970-01-01T00:00:01.000Z</time>
</trkpt>
<trkpt lat="54.727095" lon="83.027034">
<time>1970-01-01T00:00:01.000Z</time>
</trkpt>
<trkpt lat="54.726398" lon="83.025023">
<time>1970-01-01T00:00:01.000Z</time>
</trkpt>
<trkpt lat="54.727095" lon="83.023907">
<time>1970-01-01T00:00:01.000Z</time>
</trkpt>
<trkpt lat="54.728282" lon="83.022534">
<time>1970-01-01T00:00:01.000Z</time>
</trkpt>
<trkpt lat="54.728743" lon="83.022560">
<time>1970-01-01T00:00:01.000Z</time>
</trkpt>
<trkpt lat="54.729035" lon="83.022759">
<time>1970-01-01T00:00:01.000Z</time>
</trkpt>
<trkpt lat="54.729304" lon="83.022818">
<time>1970-01-01T00:00:01.000Z</time>
</trkpt>
<trkpt lat="54.730748" lon="83.022351">
<time>1970-01-01T00:00:01.000Z</time>
</trkpt>
<trkpt lat="54.731497" lon="83.022228">
<time>1970-01-01T00:00:01.000Z</time>
</trkpt>
<trkpt lat="54.731841" lon="83.022003">
<time>1970-01-01T00:00:01.000Z</time>
</trkpt>
<trkpt lat="54.731921" lon="83.022035">
<time>1970-01-01T00:00:01.000Z</time>
</trkpt>
<trkpt lat="54.732123" lon="83.021831">
<time>1970-01-01T00:00:01.000Z</time>
</trkpt>
<trkpt lat="54.732631" lon="83.022051">
<time>1970-01-01T00:00:01.000Z</time>
</trkpt>
<trkpt lat="54.733253" lon="83.021826">
<time>1970-01-01T00:00:01.000Z</time>
</trkpt>
<trkpt lat="54.733387" lon="83.021289">
<time>1970-01-01T00:00:01.000Z</time>
</trkpt>
<trkpt lat="54.733857" lon="83.021364">
<time>1970-01-01T00:00:01.000Z</time>
</trkpt>
<trkpt lat="54.734294" lon="83.021364">
<time>1970-01-01T00:00:01.000Z</time>
</trkpt>
<trkpt lat="54.734625" lon="83.021590">
<time>1970-01-01T00:00:01.000Z</time>
</trkpt>
<trkpt lat="54.734821" lon="83.021488">
<time>1970-01-01T00:00:01.000Z</time>
</trkpt>
<trkpt lat="54.735198" lon="83.021616">
<time>1970-01-01T00:00:01.000Z</time>
</trkpt>
<trkpt lat="54.735573" lon="83.022029">
<time>1970-01-01T00:00:01.000Z</time>
</trkpt>
<trkpt lat="54.736298" lon="83.021536">
<time>1970-01-01T00:00:01.000Z</time>
</trkpt>
<trkpt lat="54.737085" lon="83.021493">
<time>1970-01-01T00:00:01.000Z</time>
</trkpt>
<trkpt lat="54.737431" lon="83.021750">
<time>1970-01-01T00:00:01.000Z</time>
</trkpt>
<trkpt lat="54.738001" lon="83.021396">
<time>1970-01-01T00:00:01.000Z</time>
</trkpt>
<trkpt lat="54.738627" lon="83.021632">
<time>1970-01-01T00:00:01.000Z</time>
</trkpt>
<trkpt lat="54.739308" lon="83.022974">
<time>1970-01-01T00:00:01.000Z</time>
</trkpt>
<trkpt lat="54.740250" lon="83.022062">
<time>1970-01-01T00:00:01.000Z</time>
</trkpt>
<trkpt lat="54.740919" lon="83.021804">
<time>1970-01-01T00:00:01.000Z</time>
</trkpt>
<trkpt lat="54.743458" lon="83.023456">
<time>1970-01-01T00:00:01.000Z</time>
</trkpt>
<trkpt lat="54.744932" lon="83.023328">
<time>1970-01-01T00:00:01.000Z</time>
</trkpt>
<trkpt lat="54.746827" lon="83.022952">
<time>1970-01-01T00:00:01.000Z</time>
</trkpt>
<trkpt lat="54.748139" lon="83.022298">
<time>1970-01-01T00:00:01.000Z</time>
</trkpt>
<trkpt lat="54.750164" lon="83.021182">
<time>1970-01-01T00:00:01.000Z</time>
</trkpt>
<trkpt lat="54.750666" lon="83.021182">
<time>1970-01-01T00:00:01.000Z</time>
</trkpt>
<trkpt lat="54.752734" lon="83.020517">
<time>1970-01-01T00:00:01.000Z</time>
</trkpt>
<trkpt lat="54.753737" lon="83.020549">
<time>1970-01-01T00:00:01.000Z</time>
</trkpt>
<trkpt lat="54.755693" lon="83.020238">
<time>1970-01-01T00:00:01.000Z</time>
</trkpt>
<trkpt lat="54.756046" lon="83.020023">
<time>1970-01-01T00:00:01.000Z</time>
</trkpt>
<trkpt lat="54.757278" lon="83.020130">
<time>1970-01-01T00:00:01.000Z</time>
</trkpt>
<trkpt lat="54.758133" lon="83.019691">
<time>1970-01-01T00:00:01.000Z</time>
</trkpt>
<trkpt lat="54.758746" lon="83.020077">
<time>1970-01-01T00:00:01.000Z</time>
</trkpt>
<trkpt lat="54.759445" lon="83.019111">
<time>1970-01-01T00:00:01.000Z</time>
</trkpt>
<trkpt lat="54.760751" lon="83.018736">
<time>1970-01-01T00:00:01.000Z</time>
</trkpt>
<trkpt lat="54.764725" lon="83.017352">
<time>1970-01-01T00:00:01.000Z</time>
</trkpt>
<trkpt lat="54.765474" lon="83.018006">
<time>1970-01-01T00:00:01.000Z</time>
</trkpt>
<trkpt lat="54.766186" lon="83.017448">
<time>1970-01-01T00:00:01.000Z</time>
</trkpt>
<trkpt lat="54.766582" lon="83.017008">
<time>1970-01-01T00:00:01.000Z</time>
</trkpt>
<trkpt lat="54.766861" lon="83.017277">
<time>1970-01-01T00:00:01.000Z</time>
</trkpt>
<trkpt lat="54.767814" lon="83.019272">
<time>1970-01-01T00:00:01.000Z</time>
</trkpt>
<trkpt lat="54.769634" lon="83.025924">
<time>1970-01-01T00:00:01.000Z</time>
</trkpt>
<trkpt lat="54.770550" lon="83.026943">
<time>1970-01-01T00:00:01.000Z</time>
</trkpt>
<trkpt lat="54.770958" lon="83.027920">
<time>1970-01-01T00:00:01.000Z</time>
</trkpt>
<trkpt lat="54.771373" lon="83.028263">
<time>1970-01-01T00:00:01.000Z</time>
</trkpt>
<trkpt lat="54.771775" lon="83.030741">
<time>1970-01-01T00:00:01.000Z</time>
</trkpt>
<trkpt lat="54.771769" lon="83.031707">
<time>1970-01-01T00:00:01.000Z</time>
</trkpt>
<trkpt lat="54.772109" lon="83.032340">
<time>1970-01-01T00:00:01.000Z</time>
</trkpt>
<trkpt lat="54.773186" lon="83.032694">
<time>1970-01-01T00:00:01.000Z</time>
</trkpt>
<trkpt lat="54.773718" lon="83.032469">
<time>1970-01-01T00:00:01.000Z</time>
</trkpt>
<trkpt lat="54.774251" lon="83.031836">
<time>1970-01-01T00:00:01.000Z</time>
</trkpt>
<trkpt lat="54.774795" lon="83.030870">
<time>1970-01-01T00:00:01.000Z</time>
</trkpt>
<trkpt lat="54.778712" lon="83.033016">
<time>1970-01-01T00:00:01.000Z</time>
</trkpt>
<trkpt lat="54.780111" lon="83.034679">
<time>1970-01-01T00:00:01.000Z</time>
</trkpt>
<trkpt lat="54.780507" lon="83.036588">
<time>1970-01-01T00:00:01.000Z</time>
</trkpt>
<trkpt lat="54.780933" lon="83.037152">
<time>1970-01-01T00:00:01.000Z</time>
</trkpt>
<trkpt lat="54.781224" lon="83.037254">
<time>1970-01-01T00:00:01.000Z</time>
</trkpt>
<trkpt lat="54.781713" lon="83.036208">
<time>1970-01-01T00:00:01.000Z</time>
</trkpt>
<trkpt lat="54.781719" lon="83.035703">
<time>1970-01-01T00:00:01.000Z</time>
</trkpt>
<trkpt lat="54.781899" lon="83.035060">
<time>1970-01-01T00:00:01.000Z</time>
</trkpt>
<trkpt lat="54.782319" lon="83.034571">
<time>1970-01-01T00:00:01.000Z</time>
</trkpt>
<trkpt lat="54.782616" lon="83.034754">
<time>1970-01-01T00:00:01.000Z</time>
</trkpt>
<trkpt lat="54.782870" lon="83.035644">
<time>1970-01-01T00:00:01.000Z</time>
</trkpt>
<trkpt lat="54.783235" lon="83.036342">
<time>1970-01-01T00:00:01.000Z</time>
</trkpt>
<trkpt lat="54.783674" lon="83.036406">
<time>1970-01-01T00:00:01.000Z</time>
</trkpt>
<trkpt lat="54.784107" lon="83.036149">
<time>1970-01-01T00:00:01.000Z</time>
</trkpt>
<trkpt lat="54.784510" lon="83.036503">
<time>1970-01-01T00:00:01.000Z</time>
</trkpt>
<trkpt lat="54.785029" lon="83.037876">
<time>1970-01-01T00:00:01.000Z</time>
</trkpt>
<trkpt lat="54.785769" lon="83.038525">
<time>1970-01-01T00:00:01.000Z</time>
</trkpt>
<trkpt lat="54.786591" lon="83.037715">
<time>1970-01-01T00:00:01.000Z</time>
</trkpt>
<trkpt lat="54.787092" lon="83.038327">
<time>1970-01-01T00:00:01.000Z</time>
</trkpt>
<trkpt lat="54.788160" lon="83.036728">
<time>1970-01-01T00:00:01.000Z</time>
</trkpt>
<trkpt lat="54.791113" lon="83.041293">
<time>1970-01-01T00:00:01.000Z</time>
</trkpt>
<trkpt lat="54.792137" lon="83.041642">
<time>1970-01-01T00:00:01.000Z</time>
</trkpt>
<trkpt lat="54.792406" lon="83.041599">
<time>1970-01-01T00:00:01.000Z</time>
</trkpt>
<trkpt lat="54.792502" lon="83.041481">
<time>1970-01-01T00:00:01.000Z</time>
</trkpt>
<trkpt lat="54.792724" lon="83.041436">
<time>1970-01-01T00:00:01.000Z</time>
</trkpt>
<trkpt lat="54.793069" lon="83.041514">
<time>1970-01-01T00:00:01.000Z</time>
</trkpt>
<trkpt lat="54.793557" lon="83.041879">
<time>1970-01-01T00:00:01.000Z</time>
</trkpt>
<trkpt lat="54.794185" lon="83.041631">
<time>1970-01-01T00:00:01.000Z</time>
</trkpt>
<trkpt lat="54.794339" lon="83.042818">
<time>1970-01-01T00:00:01.000Z</time>
</trkpt>
<trkpt lat="54.795360" lon="83.042382">
<time>1970-01-01T00:00:01.000Z</time>
</trkpt>
<trkpt lat="54.795222" lon="83.041433">
<time>1970-01-01T00:00:01.000Z</time>
</trkpt>
<trkpt lat="54.795236" lon="83.041159">
<time>1970-01-01T00:00:01.000Z</time>
</trkpt>
<trkpt lat="54.795377" lon="83.041138">
<time>1970-01-01T00:00:01.000Z</time>
</trkpt>
<trkpt lat="54.795569" lon="83.041299">
<time>1970-01-01T00:00:01.000Z</time>
</trkpt>
<trkpt lat="54.795819" lon="83.041659">
<time>1970-01-01T00:00:01.000Z</time>
</trkpt>
<trkpt lat="54.796162" lon="83.042469">
<time>1970-01-01T00:00:01.000Z</time>
</trkpt>
<trkpt lat="54.796347" lon="83.042603">
<time>1970-01-01T00:00:01.000Z</time>
</trkpt>
<trkpt lat="54.796718" lon="83.042635">
<time>1970-01-01T00:00:01.000Z</time>
</trkpt>
<trkpt lat="54.797141" lon="83.042747">
<time>1970-01-01T00:00:01.000Z</time>
</trkpt>
<trkpt lat="54.797370" lon="83.043140">
<time>1970-01-01T00:00:01.000Z</time>
</trkpt>
<trkpt lat="54.797379" lon="83.043676">
<time>1970-01-01T00:00:01.000Z</time>
</trkpt>
<trkpt lat="54.797308" lon="83.044063">
<time>1970-01-01T00:00:01.000Z</time>
</trkpt>
<trkpt lat="54.797175" lon="83.046483">
<time>1970-01-01T00:00:01.000Z</time>
</trkpt>
<trkpt lat="54.797231" lon="83.047792">
<time>1970-01-01T00:00:01.000Z</time>
</trkpt>
<trkpt lat="54.797209" lon="83.048701">
<time>1970-01-01T00:00:01.000Z</time>
</trkpt>
<trkpt lat="54.797240" lon="83.049399">
<time>1970-01-01T00:00:01.000Z</time>
</trkpt>
<trkpt lat="54.797469" lon="83.050443">
<time>1970-01-01T00:00:01.000Z</time>
</trkpt>
<trkpt lat="54.797883" lon="83.051560">
<time>1970-01-01T00:00:01.000Z</time>
</trkpt>
<trkpt lat="54.798533" lon="83.052928">
<time>1970-01-01T00:00:01.000Z</time>
</trkpt>
<trkpt lat="54.798748" lon="83.053529">
<time>1970-01-01T00:00:01.000Z</time>
</trkpt>
<trkpt lat="54.798730" lon="83.053658">
<time>1970-01-01T00:00:01.000Z</time>
</trkpt>
<trkpt lat="54.798669" lon="83.053690">
<time>1970-01-01T00:00:01.000Z</time>
</trkpt>
<trkpt lat="54.798560" lon="83.053620">
<time>1970-01-01T00:00:01.000Z</time>
</trkpt>
<trkpt lat="54.798297" lon="83.053647">
<time>1970-01-01T00:00:01.000Z</time>
</trkpt>
<trkpt lat="54.797555" lon="83.053197">
<time>1970-01-01T00:00:01.000Z</time>
</trkpt>
<trkpt lat="54.797033" lon="83.053171">
<time>1970-01-01T00:00:01.000Z</time>
</trkpt>
<trkpt lat="54.796622" lon="83.052993">
<time>1970-01-01T00:00:01.000Z</time>
</trkpt>
<trkpt lat="54.796053" lon="83.052875">
<time>1970-01-01T00:00:01.000Z</time>
</trkpt>
<trkpt lat="54.795811" lon="83.052607">
<time>1970-01-01T00:00:01.000Z</time>
</trkpt>
<trkpt lat="54.795518" lon="83.052183">
<time>1970-01-01T00:00:01.000Z</time>
</trkpt>
<trkpt lat="54.795409" lon="83.051920">
<time>1970-01-01T00:00:01.000Z</time>
</trkpt>
<trkpt lat="54.795521" lon="83.052188">
<time>1970-01-01T00:00:01.000Z</time>
</trkpt>
<trkpt lat="54.795811" lon="83.052607">
<time>1970-01-01T00:00:01.000Z</time>
</trkpt>
<trkpt lat="54.796053" lon="83.052875">
<time>1970-01-01T00:00:01.000Z</time>
</trkpt>
<trkpt lat="54.796622" lon="83.052994">
<time>1970-01-01T00:00:01.000Z</time>
</trkpt>
<trkpt lat="54.797036" lon="83.053175">
<time>1970-01-01T00:00:01.000Z</time>
</trkpt>
<trkpt lat="54.797555" lon="83.053197">
<time>1970-01-01T00:00:01.000Z</time>
</trkpt>
<trkpt lat="54.798297" lon="83.053643">
<time>1970-01-01T00:00:01.000Z</time>
</trkpt>
<trkpt lat="54.798557" lon="83.053615">
<time>1970-01-01T00:00:01.000Z</time>
</trkpt>
<trkpt lat="54.798669" lon="83.053690">
<time>1970-01-01T00:00:01.000Z</time>
</trkpt>
<trkpt lat="54.798734" lon="83.053653">
<time>1970-01-01T00:00:01.000Z</time>
</trkpt>
<trkpt lat="54.798749" lon="83.053529">
<time>1970-01-01T00:00:01.000Z</time>
</trkpt>
<trkpt lat="54.798531" lon="83.052932">
<time>1970-01-01T00:00:01.000Z</time>
</trkpt>
<trkpt lat="54.797883" lon="83.051555">
<time>1970-01-01T00:00:01.000Z</time>
</trkpt>
<trkpt lat="54.797470" lon="83.050440">
<time>1970-01-01T00:00:01.000Z</time>
</trkpt>
<trkpt lat="54.797240" lon="83.049399">
<time>1970-01-01T00:00:01.000Z</time>
</trkpt>
<trkpt lat="54.797209" lon="83.048701">
<time>1970-01-01T00:00:01.000Z</time>
</trkpt>
<trkpt lat="54.797235" lon="83.047789">
<time>1970-01-01T00:00:01.000Z</time>
</trkpt>
<trkpt lat="54.797178" lon="83.046480">
<time>1970-01-01T00:00:01.000Z</time>
</trkpt>
<trkpt lat="54.797308" lon="83.044066">
<time>1970-01-01T00:00:01.000Z</time>
</trkpt>
<trkpt lat="54.797382" lon="83.043680">
<time>1970-01-01T00:00:01.000Z</time>
</trkpt>
<trkpt lat="54.797370" lon="83.043144">
<time>1970-01-01T00:00:01.000Z</time>
</trkpt>
<trkpt lat="54.797141" lon="83.042747">
<time>1970-01-01T00:00:01.000Z</time>
</trkpt>
<trkpt lat="54.796721" lon="83.042639">
<time>1970-01-01T00:00:01.000Z</time>
</trkpt>
<trkpt lat="54.796349" lon="83.042607">
<time>1970-01-01T00:00:01.000Z</time>
</trkpt>
<trkpt lat="54.796164" lon="83.042468">
<time>1970-01-01T00:00:01.000Z</time>
</trkpt>
<trkpt lat="54.795817" lon="83.041663">
<time>1970-01-01T00:00:01.000Z</time>
</trkpt>
<trkpt lat="54.795570" lon="83.041298">
<time>1970-01-01T00:00:01.000Z</time>
</trkpt>
<trkpt lat="54.795380" lon="83.041136">
<time>1970-01-01T00:00:01.000Z</time>
</trkpt>
<trkpt lat="54.795238" lon="83.041163">
<time>1970-01-01T00:00:01.000Z</time>
</trkpt>
<trkpt lat="54.795224" lon="83.041438">
<time>1970-01-01T00:00:01.000Z</time>
</trkpt>
<trkpt lat="54.795360" lon="83.042382">
<time>1970-01-01T00:00:01.000Z</time>
</trkpt>
<trkpt lat="54.794339" lon="83.042822">
<time>1970-01-01T00:00:01.000Z</time>
</trkpt>
<trkpt lat="54.794185" lon="83.041631">
<time>1970-01-01T00:00:01.000Z</time>
</trkpt>
<trkpt lat="54.793560" lon="83.041878">
<time>1970-01-01T00:00:01.000Z</time>
</trkpt>
<trkpt lat="54.793068" lon="83.041513">
<time>1970-01-01T00:00:01.000Z</time>
</trkpt>
<trkpt lat="54.792724" lon="83.041435">
<time>1970-01-01T00:00:01.000Z</time>
</trkpt>
<trkpt lat="54.792502" lon="83.041481">
<time>1970-01-01T00:00:01.000Z</time>
</trkpt>
<trkpt lat="54.792406" lon="83.041599">
<time>1970-01-01T00:00:01.000Z</time>
</trkpt>
<trkpt lat="54.792136" lon="83.041639">
<time>1970-01-01T00:00:01.000Z</time>
</trkpt>
<trkpt lat="54.791110" lon="83.041309">
<time>1970-01-01T00:00:01.000Z</time>
</trkpt>
<trkpt lat="54.788153" lon="83.036728">
<time>1970-01-01T00:00:01.000Z</time>
</trkpt>
<trkpt lat="54.787096" lon="83.038337">
<time>1970-01-01T00:00:01.000Z</time>
</trkpt>
<trkpt lat="54.786588" lon="83.037704">
<time>1970-01-01T00:00:01.000Z</time>
</trkpt>
<trkpt lat="54.785772" lon="83.038541">
<time>1970-01-01T00:00:01.000Z</time>
</trkpt>
<trkpt lat="54.785042" lon="83.037876">
<time>1970-01-01T00:00:01.000Z</time>
</trkpt>
<trkpt lat="54.784503" lon="83.036492">
<time>1970-01-01T00:00:01.000Z</time>
</trkpt>
<trkpt lat="54.784107" lon="83.036138">
<time>1970-01-01T00:00:01.000Z</time>
</trkpt>
<trkpt lat="54.783662" lon="83.036417">
<time>1970-01-01T00:00:01.000Z</time>
</trkpt>
<trkpt lat="54.783247" lon="83.036342">
<time>1970-01-01T00:00:01.000Z</time>
</trkpt>
<trkpt lat="54.782867" lon="83.035639">
<time>1970-01-01T00:00:01.000Z</time>
</trkpt>
<trkpt lat="54.782613" lon="83.034748">
<time>1970-01-01T00:00:01.000Z</time>
</trkpt>
<trkpt lat="54.782319" lon="83.034566">
<time>1970-01-01T00:00:01.000Z</time>
</trkpt>
<trkpt lat="54.781883" lon="83.035076">
<time>1970-01-01T00:00:01.000Z</time>
</trkpt>
<trkpt lat="54.781722" lon="83.035698">
<time>1970-01-01T00:00:01.000Z</time>
</trkpt>
<trkpt lat="54.781716" lon="83.036202">
<time>1970-01-01T00:00:01.000Z</time>
</trkpt>
<trkpt lat="54.781599" lon="83.036513">
<time>1970-01-01T00:00:01.000Z</time>
</trkpt>
<trkpt lat="54.781215" lon="83.037259">
<time>1970-01-01T00:00:01.000Z</time>
</trkpt>
<trkpt lat="54.780946" lon="83.038305">
<time>1970-01-01T00:00:01.000Z</time>
</trkpt>
<trkpt lat="54.780568" lon="83.040118">
<time>1970-01-01T00:00:01.000Z</time>
</trkpt>
<trkpt lat="54.780302" lon="83.042446">
<time>1970-01-01T00:00:01.000Z</time>
</trkpt>
<trkpt lat="54.779671" lon="83.042972">
<time>1970-01-01T00:00:01.000Z</time>
</trkpt>
<trkpt lat="54.779151" lon="83.044420">
<time>1970-01-01T00:00:01.000Z</time>
</trkpt>
<trkpt lat="54.779244" lon="83.046191">
<time>1970-01-01T00:00:01.000Z</time>
</trkpt>
<trkpt lat="54.779739" lon="83.047435">
<time>1970-01-01T00:00:01.000Z</time>
</trkpt>
<trkpt lat="54.779894" lon="83.049431">
<time>1970-01-01T00:00:01.000Z</time>
</trkpt>
<trkpt lat="54.779479" lon="83.051544">
<time>1970-01-01T00:00:01.000Z</time>
</trkpt>
<trkpt lat="54.778947" lon="83.053036">
<time>1970-01-01T00:00:01.000Z</time>
</trkpt>
<trkpt lat="54.778496" lon="83.054945">
<time>1970-01-01T00:00:01.000Z</time>
</trkpt>
<trkpt lat="54.776707" lon="83.056823">
<time>1970-01-01T00:00:01.000Z</time>
</trkpt>
<trkpt lat="54.775191" lon="83.059151">
<time>1970-01-01T00:00:01.000Z</time>
</trkpt>
<trkpt lat="54.774783" lon="83.060020">
<time>1970-01-01T00:00:01.000Z</time>
</trkpt>
<trkpt lat="54.774777" lon="83.060975">
<time>1970-01-01T00:00:01.000Z</time>
</trkpt>
<trkpt lat="54.774597" lon="83.061157">
<time>1970-01-01T00:00:01.000Z</time>
</trkpt>
<trkpt lat="54.773718" lon="83.061340">
<time>1970-01-01T00:00:01.000Z</time>
</trkpt>
<trkpt lat="54.770946" lon="83.064977">
<time>1970-01-01T00:00:01.000Z</time>
</trkpt>
<trkpt lat="54.770661" lon="83.067166">
<time>1970-01-01T00:00:01.000Z</time>
</trkpt>
<trkpt lat="54.770661" lon="83.068979">
<time>1970-01-01T00:00:01.000Z</time>
</trkpt>
<trkpt lat="54.770785" lon="83.069644">
<time>1970-01-01T00:00:01.000Z</time>
</trkpt>
<trkpt lat="54.770940" lon="83.069927">
<time>1970-01-01T00:00:01.000Z</time>
</trkpt>
<trkpt lat="54.770754" lon="83.070792">
<time>1970-01-01T00:00:01.000Z</time>
</trkpt>
<trkpt lat="54.770872" lon="83.071135">
<time>1970-01-01T00:00:01.000Z</time>
</trkpt>
<trkpt lat="54.768254" lon="83.078495">
<time>1970-01-01T00:00:01.000Z</time>
</trkpt>
<trkpt lat="54.772326" lon="83.079289">
<time>1970-01-01T00:00:01.000Z</time>
</trkpt>
<trkpt lat="54.773211" lon="83.080282">
<time>1970-01-01T00:00:01.000Z</time>
</trkpt>
<trkpt lat="54.773508" lon="83.080899">
<time>1970-01-01T00:00:01.000Z</time>
</trkpt>
<trkpt lat="54.773585" lon="83.081735">
<time>1970-01-01T00:00:01.000Z</time>
</trkpt>
<trkpt lat="54.774152" lon="83.082095">
<time>1970-01-01T00:00:01.000Z</time>
</trkpt>
<trkpt lat="54.774588" lon="83.082964">
<time>1970-01-01T00:00:01.000Z</time>
</trkpt>
<trkpt lat="54.775733" lon="83.086209">
<time>1970-01-01T00:00:01.000Z</time>
</trkpt>
<trkpt lat="54.775863" lon="83.087266">
<time>1970-01-01T00:00:01.000Z</time>
</trkpt>
<trkpt lat="54.775253" lon="83.089224">
<time>1970-01-01T00:00:01.000Z</time>
</trkpt>
<trkpt lat="54.773276" lon="83.088307">
<time>1970-01-01T00:00:01.000Z</time>
</trkpt>
<trkpt lat="54.773205" lon="83.090200">
<time>1970-01-01T00:00:01.000Z</time>
</trkpt>
<trkpt lat="54.773551" lon="83.091477">
<time>1970-01-01T00:00:01.000Z</time>
</trkpt>
<trkpt lat="54.773762" lon="83.093376">
<time>1970-01-01T00:00:01.000Z</time>
</trkpt>
<trkpt lat="54.773557" lon="83.094760">
<time>1970-01-01T00:00:01.000Z</time>
</trkpt>
<trkpt lat="54.773328" lon="83.095340">
<time>1970-01-01T00:00:01.000Z</time>
</trkpt>
<trkpt lat="54.773740" lon="83.096273">
<time>1970-01-01T00:00:01.000Z</time>
</trkpt>
<trkpt lat="54.773217" lon="83.097861">
<time>1970-01-01T00:00:01.000Z</time>
</trkpt>
<trkpt lat="54.771846" lon="83.099379">
<time>1970-01-01T00:00:01.000Z</time>
</trkpt>
<trkpt lat="54.770915" lon="83.100666">
<time>1970-01-01T00:00:01.000Z</time>
</trkpt>
<trkpt lat="54.770698" lon="83.101358">
<time>1970-01-01T00:00:01.000Z</time>
</trkpt>
<trkpt lat="54.770738" lon="83.101798">
<time>1970-01-01T00:00:01.000Z</time>
</trkpt>
<trkpt lat="54.770562" lon="83.101948">
<time>1970-01-01T00:00:01.000Z</time>
</trkpt>
<trkpt lat="54.770704" lon="83.102635">
<time>1970-01-01T00:00:01.000Z</time>
</trkpt>
<trkpt lat="54.770859" lon="83.102582">
<time>1970-01-01T00:00:01.000Z</time>
</trkpt>
<trkpt lat="54.770902" lon="83.102270">
<time>1970-01-01T00:00:01.000Z</time>
</trkpt>
<trkpt lat="54.772221" lon="83.101423">
<time>1970-01-01T00:00:01.000Z</time>
</trkpt>
<trkpt lat="54.773842" lon="83.099288">
<time>1970-01-01T00:00:01.000Z</time>
</trkpt>
<trkpt lat="54.781973" lon="83.087207">
<time>1970-01-01T00:00:01.000Z</time>
</trkpt>
<trkpt lat="54.784602" lon="83.083645">
<time>1970-01-01T00:00:01.000Z</time>
</trkpt>
<trkpt lat="54.784930" lon="83.083119">
<time>1970-01-01T00:00:01.000Z</time>
</trkpt>
<trkpt lat="54.785289" lon="83.083119">
<time>1970-01-01T00:00:01.000Z</time>
</trkpt>
<trkpt lat="54.785592" lon="83.083602">
<time>1970-01-01T00:00:01.000Z</time>
</trkpt>
<trkpt lat="54.787089" lon="83.082132">
<time>1970-01-01T00:00:01.000Z</time>
</trkpt>
<trkpt lat="54.787331" lon="83.082626">
<time>1970-01-01T00:00:01.000Z</time>
</trkpt>
<trkpt lat="54.788395" lon="83.081445">
<time>1970-01-01T00:00:01.000Z</time>
</trkpt>
<trkpt lat="54.788617" lon="83.081984">
<time>1970-01-01T00:00:01.000Z</time>
</trkpt>
<trkpt lat="54.791203" lon="83.078624">
<time>1970-01-01T00:00:01.000Z</time>
</trkpt>
<trkpt lat="54.792341" lon="83.079407">
<time>1970-01-01T00:00:01.000Z</time>
</trkpt>
<trkpt lat="54.792150" lon="83.080856">
<time>1970-01-01T00:00:01.000Z</time>
</trkpt>
<trkpt lat="54.792545" lon="83.082572">
<time>1970-01-01T00:00:01.000Z</time>
</trkpt>
<trkpt lat="54.793956" lon="83.085437">
<time>1970-01-01T00:00:01.000Z</time>
</trkpt>
<trkpt lat="54.795564" lon="83.087497">
<time>1970-01-01T00:00:01.000Z</time>
</trkpt>
<trkpt lat="54.796727" lon="83.090115">
<time>1970-01-01T00:00:01.000Z</time>
</trkpt>
<trkpt lat="54.800561" lon="83.093634">
<time>1970-01-01T00:00:01.000Z</time>
</trkpt>
<trkpt lat="54.803959" lon="83.094385">
<time>1970-01-01T00:00:01.000Z</time>
</trkpt>
<trkpt lat="54.805045" lon="83.094670">
<time>1970-01-01T00:00:01.000Z</time>
</trkpt>
<trkpt lat="54.805082" lon="83.094895">
<time>1970-01-01T00:00:01.000Z</time>
</trkpt>
<trkpt lat="54.806000" lon="83.095142">
<time>1970-01-01T00:00:01.000Z</time>
</trkpt>
<trkpt lat="54.806105" lon="83.093580">
<time>1970-01-01T00:00:01.000Z</time>
</trkpt>
<trkpt lat="54.807920" lon="83.093988">
<time>1970-01-01T00:00:01.000Z</time>
</trkpt>
<trkpt lat="54.808504" lon="83.094176">
<time>1970-01-01T00:00:01.000Z</time>
</trkpt>
<trkpt lat="54.808606" lon="83.094321">
<time>1970-01-01T00:00:01.000Z</time>
</trkpt>
<trkpt lat="54.808677" lon="83.095324">
<time>1970-01-01T00:00:01.000Z</time>
</trkpt>
<trkpt lat="54.808786" lon="83.095523">
<time>1970-01-01T00:00:01.000Z</time>
</trkpt>
<trkpt lat="54.808773" lon="83.096295">
<time>1970-01-01T00:00:01.000Z</time>
</trkpt>
<trkpt lat="54.809432" lon="83.096381">
<time>1970-01-01T00:00:01.000Z</time>
</trkpt>
<trkpt lat="54.809803" lon="83.096993">
<time>1970-01-01T00:00:01.000Z</time>
</trkpt>
<trkpt lat="54.810613" lon="83.096912">
<time>1970-01-01T00:00:01.000Z</time>
</trkpt>
<trkpt lat="54.810579" lon="83.096376">
<time>1970-01-01T00:00:01.000Z</time>
</trkpt>
<trkpt lat="54.811407" lon="83.095699">
<time>1970-01-01T00:00:01.000Z</time>
</trkpt>
<trkpt lat="54.810579" lon="83.096382">
<time>1970-01-01T00:00:01.000Z</time>
</trkpt>
<trkpt lat="54.810616" lon="83.096917">
<time>1970-01-01T00:00:01.000Z</time>
</trkpt>
<trkpt lat="54.809806" lon="83.096993">
<time>1970-01-01T00:00:01.000Z</time>
</trkpt>
<trkpt lat="54.809429" lon="83.096382">
<time>1970-01-01T00:00:01.000Z</time>
</trkpt>
<trkpt lat="54.808773" lon="83.096295">
<time>1970-01-01T00:00:01.000Z</time>
</trkpt>
<trkpt lat="54.808786" lon="83.095523">
<time>1970-01-01T00:00:01.000Z</time>
</trkpt>
<trkpt lat="54.808674" lon="83.095329">
<time>1970-01-01T00:00:01.000Z</time>
</trkpt>
<trkpt lat="54.808612" lon="83.094321">
<time>1970-01-01T00:00:01.000Z</time>
</trkpt>
<trkpt lat="54.808507" lon="83.094182">
<time>1970-01-01T00:00:01.000Z</time>
</trkpt>
<trkpt lat="54.807926" lon="83.093998">
<time>1970-01-01T00:00:01.000Z</time>
</trkpt>
<trkpt lat="54.806102" lon="83.093570">
<time>1970-01-01T00:00:01.000Z</time>
</trkpt>
<trkpt lat="54.806003" lon="83.095148">
<time>1970-01-01T00:00:01.000Z</time>
</trkpt>
<trkpt lat="54.805076" lon="83.094890">
<time>1970-01-01T00:00:01.000Z</time>
</trkpt>
<trkpt lat="54.805051" lon="83.094675">
<time>1970-01-01T00:00:01.000Z</time>
</trkpt>
<trkpt lat="54.803962" lon="83.094385">
<time>1970-01-01T00:00:01.000Z</time>
</trkpt>
<trkpt lat="54.804445" lon="83.087990">
<time>1970-01-01T00:00:01.000Z</time>
</trkpt>
<trkpt lat="54.804510" lon="83.087904">
<time>1970-01-01T00:00:01.000Z</time>
</trkpt>
<trkpt lat="54.805252" lon="83.088087">
<time>1970-01-01T00:00:01.000Z</time>
</trkpt>
<trkpt lat="54.805280" lon="83.087572">
<time>1970-01-01T00:00:01.000Z</time>
</trkpt>
<trkpt lat="54.804865" lon="83.087336">
<time>1970-01-01T00:00:01.000Z</time>
</trkpt>
<trkpt lat="54.804655" lon="83.087014">
<time>1970-01-01T00:00:01.000Z</time>
</trkpt>
<trkpt lat="54.804822" lon="83.087035">
<time>1970-01-01T00:00:01.000Z</time>
</trkpt>
<trkpt lat="54.805286" lon="83.086800">
<time>1970-01-01T00:00:01.000Z</time>
</trkpt>
<trkpt lat="54.806083" lon="83.087143">
<time>1970-01-01T00:00:01.000Z</time>
</trkpt>
<trkpt lat="54.807747" lon="83.087411">
<time>1970-01-01T00:00:01.000Z</time>
</trkpt>
<trkpt lat="54.807883" lon="83.087271">
<time>1970-01-01T00:00:01.000Z</time>
</trkpt>
<trkpt lat="54.809589" lon="83.087926">
<time>1970-01-01T00:00:01.000Z</time>
</trkpt>
<trkpt lat="54.807877" lon="83.087282">
<time>1970-01-01T00:00:01.000Z</time>
</trkpt>
<trkpt lat="54.807741" lon="83.087411">
<time>1970-01-01T00:00:01.000Z</time>
</trkpt>
<trkpt lat="54.806102" lon="83.087133">
<time>1970-01-01T00:00:01.000Z</time>
</trkpt>
<trkpt lat="54.805283" lon="83.086799">
<time>1970-01-01T00:00:01.000Z</time>
</trkpt>
<trkpt lat="54.804822" lon="83.087035">
<time>1970-01-01T00:00:01.000Z</time>
</trkpt>
<trkpt lat="54.804655" lon="83.087004">
<time>1970-01-01T00:00:01.000Z</time>
</trkpt>
<trkpt lat="54.804667" lon="83.086697">
<time>1970-01-01T00:00:01.000Z</time>
</trkpt>
<trkpt lat="54.804550" lon="83.086043">
<time>1970-01-01T00:00:01.000Z</time>
</trkpt>
<trkpt lat="54.804822" lon="83.084906">
<time>1970-01-01T00:00:01.000Z</time>
</trkpt>
<trkpt lat="54.805233" lon="83.085029">
<time>1970-01-01T00:00:01.000Z</time>
</trkpt>
<trkpt lat="54.805796" lon="83.084825">
<time>1970-01-01T00:00:01.000Z</time>
</trkpt>
<trkpt lat="54.806612" lon="83.085539">
<time>1970-01-01T00:00:01.000Z</time>
</trkpt>
<trkpt lat="54.806999" lon="83.085399">
<time>1970-01-01T00:00:01.000Z</time>
</trkpt>
<trkpt lat="54.807280" lon="83.085206">
<time>1970-01-01T00:00:01.000Z</time>
</trkpt>
<trkpt lat="54.808628" lon="83.086451">
<time>1970-01-01T00:00:01.000Z</time>
</trkpt>
<trkpt lat="54.809327" lon="83.086874">
<time>1970-01-01T00:00:01.000Z</time>
</trkpt>
<trkpt lat="54.809778" lon="83.087078">
<time>1970-01-01T00:00:01.000Z</time>
</trkpt>
<trkpt lat="54.809682" lon="83.087438">
<time>1970-01-01T00:00:01.000Z</time>
</trkpt>
<trkpt lat="54.809883" lon="83.087647">
<time>1970-01-01T00:00:01.000Z</time>
</trkpt>
<trkpt lat="54.809855" lon="83.087937">
<time>1970-01-01T00:00:01.000Z</time>
</trkpt>
<trkpt lat="54.809592" lon="83.087921">
<time>1970-01-01T00:00:01.000Z</time>
</trkpt>
<trkpt lat="54.809630" lon="83.088409">
<time>1970-01-01T00:00:01.000Z</time>
</trkpt>
<trkpt lat="54.809787" lon="83.089101">
<time>1970-01-01T00:00:01.000Z</time>
</trkpt>
<trkpt lat="54.809908" lon="83.089176">
<time>1970-01-01T00:00:01.000Z</time>
</trkpt>
<trkpt lat="54.809920" lon="83.089589">
<time>1970-01-01T00:00:01.000Z</time>
</trkpt>
<trkpt lat="54.810028" lon="83.089793">
<time>1970-01-01T00:00:01.000Z</time>
</trkpt>
<trkpt lat="54.810121" lon="83.090737">
<time>1970-01-01T00:00:01.000Z</time>
</trkpt>
<trkpt lat="54.810297" lon="83.091086">
<time>1970-01-01T00:00:01.000Z</time>
</trkpt>
<trkpt lat="54.810603" lon="83.091424">
<time>1970-01-01T00:00:01.000Z</time>
</trkpt>
<trkpt lat="54.810702" lon="83.091692">
<time>1970-01-01T00:00:01.000Z</time>
</trkpt>
<trkpt lat="54.810443" lon="83.092046">
<time>1970-01-01T00:00:01.000Z</time>
</trkpt>
<trkpt lat="54.811076" lon="83.094406">
<time>1970-01-01T00:00:01.000Z</time>
</trkpt>
<trkpt lat="54.811262" lon="83.095227">
<time>1970-01-01T00:00:01.000Z</time>
</trkpt>
<trkpt lat="54.811410" lon="83.095700">
<time>1970-01-01T00:00:01.000Z</time>
</trkpt>
<trkpt lat="54.811639" lon="83.095780">
<time>1970-01-01T00:00:01.000Z</time>
</trkpt>
<trkpt lat="54.812066" lon="83.095629">
<time>1970-01-01T00:00:01.000Z</time>
</trkpt>
<trkpt lat="54.812161" lon="83.096092">
<time>1970-01-01T00:00:01.000Z</time>
</trkpt>
<trkpt lat="54.812767" lon="83.095865">
<time>1970-01-01T00:00:01.000Z</time>
</trkpt>
<trkpt lat="54.813620" lon="83.095779">
<time>1970-01-01T00:00:01.000Z</time>
</trkpt>
<trkpt lat="54.813608" lon="83.093980">
<time>1970-01-01T00:00:01.000Z</time>
</trkpt>
<trkpt lat="54.816613" lon="83.093958">
<time>1970-01-01T00:00:01.000Z</time>
</trkpt>
<trkpt lat="54.818034" lon="83.092928">
<time>1970-01-01T00:00:01.000Z</time>
</trkpt>
<trkpt lat="54.818121" lon="83.092626">
<time>1970-01-01T00:00:01.000Z</time>
</trkpt>
<trkpt lat="54.818022" lon="83.092294">
<time>1970-01-01T00:00:01.000Z</time>
</trkpt>
<trkpt lat="54.817651" lon="83.091500">
<time>1970-01-01T00:00:01.000Z</time>
</trkpt>
<trkpt lat="54.817089" lon="83.090673">
<time>1970-01-01T00:00:01.000Z</time>
</trkpt>
<trkpt lat="54.816767" lon="83.090341">
<time>1970-01-01T00:00:01.000Z</time>
</trkpt>
<trkpt lat="54.816749" lon="83.090137">
<time>1970-01-01T00:00:01.000Z</time>
</trkpt>
<trkpt lat="54.817212" lon="83.090426">
<time>1970-01-01T00:00:01.000Z</time>
</trkpt>
<trkpt lat="54.817478" lon="83.090223">
<time>1970-01-01T00:00:01.000Z</time>
</trkpt>
<trkpt lat="54.817898" lon="83.090233">
<time>1970-01-01T00:00:01.000Z</time>
</trkpt>
<trkpt lat="54.818405" lon="83.091059">
<time>1970-01-01T00:00:01.000Z</time>
</trkpt>
<trkpt lat="54.818727" lon="83.091016">
<time>1970-01-01T00:00:01.000Z</time>
</trkpt>
<trkpt lat="54.819184" lon="83.091188">
<time>1970-01-01T00:00:01.000Z</time>
</trkpt>
<trkpt lat="54.819907" lon="83.091810">
<time>1970-01-01T00:00:01.000Z</time>
</trkpt>
<trkpt lat="54.821459" lon="83.094717">
<time>1970-01-01T00:00:01.000Z</time>
</trkpt>
<trkpt lat="54.822355" lon="83.095876">
<time>1970-01-01T00:00:01.000Z</time>
</trkpt>
<trkpt lat="54.823013" lon="83.097040">
<time>1970-01-01T00:00:01.000Z</time>
</trkpt>
<trkpt lat="54.823681" lon="83.098805">
<time>1970-01-01T00:00:01.000Z</time>
</trkpt>
<trkpt lat="54.823483" lon="83.099148">
<time>1970-01-01T00:00:01.000Z</time>
</trkpt>
<trkpt lat="54.822763" lon="83.099830">
<time>1970-01-01T00:00:01.000Z</time>
</trkpt>
<trkpt lat="54.822293" lon="83.100527">
<time>1970-01-01T00:00:01.000Z</time>
</trkpt>
<trkpt lat="54.822402" lon="83.101546">
<time>1970-01-01T00:00:01.000Z</time>
</trkpt>
<trkpt lat="54.823928" lon="83.102061">
<time>1970-01-01T00:00:01.000Z</time>
</trkpt>
<trkpt lat="54.823888" lon="83.102641">
<time>1970-01-01T00:00:01.000Z</time>
</trkpt>
<trkpt lat="54.823690" lon="83.102637">
<time>1970-01-01T00:00:01.000Z</time>
</trkpt>
<trkpt lat="54.823455" lon="83.103053">
<time>1970-01-01T00:00:01.000Z</time>
</trkpt>
<trkpt lat="54.823332" lon="83.103450">
<time>1970-01-01T00:00:01.000Z</time>
</trkpt>
<trkpt lat="54.823088" lon="83.103793">
<time>1970-01-01T00:00:01.000Z</time>
</trkpt>
<trkpt lat="54.822686" lon="83.105130">
<time>1970-01-01T00:00:01.000Z</time>
</trkpt>
<trkpt lat="54.822587" lon="83.105988">
<time>1970-01-01T00:00:01.000Z</time>
</trkpt>
<trkpt lat="54.822908" lon="83.107195">
<time>1970-01-01T00:00:01.000Z</time>
</trkpt>
<trkpt lat="54.823174" lon="83.108643">
<time>1970-01-01T00:00:01.000Z</time>
</trkpt>
<trkpt lat="54.823316" lon="83.109164">
<time>1970-01-01T00:00:01.000Z</time>
</trkpt>
<trkpt lat="54.823567" lon="83.109480">
<time>1970-01-01T00:00:01.000Z</time>
</trkpt>
<trkpt lat="54.824166" lon="83.109583">
<time>1970-01-01T00:00:01.000Z</time>
</trkpt>
<trkpt lat="54.824358" lon="83.110006">
<time>1970-01-01T00:00:01.000Z</time>
</trkpt>
<trkpt lat="54.824682" lon="83.111771">
<time>1970-01-01T00:00:01.000Z</time>
</trkpt>
<trkpt lat="54.824828" lon="83.112335">
<time>1970-01-01T00:00:01.000Z</time>
</trkpt>
<trkpt lat="54.825044" lon="83.112640">
<time>1970-01-01T00:00:01.000Z</time>
</trkpt>
<trkpt lat="54.825755" lon="83.112111">
<time>1970-01-01T00:00:01.000Z</time>
</trkpt>
<trkpt lat="54.825959" lon="83.111427">
<time>1970-01-01T00:00:01.000Z</time>
</trkpt>
<trkpt lat="54.825915" lon="83.110564">
<time>1970-01-01T00:00:01.000Z</time>
</trkpt>
<trkpt lat="54.825779" lon="83.109695">
<time>1970-01-01T00:00:01.000Z</time>
</trkpt>
<trkpt lat="54.826101" lon="83.107592">
<time>1970-01-01T00:00:01.000Z</time>
</trkpt>
<trkpt lat="54.826391" lon="83.107431">
<time>1970-01-01T00:00:01.000Z</time>
</trkpt>
<trkpt lat="54.826404" lon="83.107173">
<time>1970-01-01T00:00:01.000Z</time>
</trkpt>
<trkpt lat="54.825748" lon="83.106486">
<time>1970-01-01T00:00:01.000Z</time>
</trkpt>
<trkpt lat="54.825569" lon="83.105961">
<time>1970-01-01T00:00:01.000Z</time>
</trkpt>
<trkpt lat="54.825483" lon="83.105232">
<time>1970-01-01T00:00:01.000Z</time>
</trkpt>
<trkpt lat="54.825291" lon="83.104105">
<time>1970-01-01T00:00:01.000Z</time>
</trkpt>
<trkpt lat="54.825835" lon="83.102882">
<time>1970-01-01T00:00:01.000Z</time>
</trkpt>
<trkpt lat="54.828072" lon="83.103150">
<time>1970-01-01T00:00:01.000Z</time>
</trkpt>
<trkpt lat="54.829719" lon="83.103585">
<time>1970-01-01T00:00:01.000Z</time>
</trkpt>
<trkpt lat="54.829775" lon="83.103263">
<time>1970-01-01T00:00:01.000Z</time>
</trkpt>
<trkpt lat="54.829923" lon="83.103274">
<time>1970-01-01T00:00:01.000Z</time>
</trkpt>
<trkpt lat="54.830050" lon="83.102930">
<time>1970-01-01T00:00:01.000Z</time>
</trkpt>
<trkpt lat="54.829979" lon="83.102152">
<time>1970-01-01T00:00:01.000Z</time>
</trkpt>
<trkpt lat="54.830291" lon="83.101594">
<time>1970-01-01T00:00:01.000Z</time>
</trkpt>
<trkpt lat="54.831094" lon="83.101434">
<time>1970-01-01T00:00:01.000Z</time>
</trkpt>
<trkpt lat="54.831836" lon="83.100452">
<time>1970-01-01T00:00:01.000Z</time>
</trkpt>
<trkpt lat="54.832293" lon="83.099739">
<time>1970-01-01T00:00:01.000Z</time>
</trkpt>
<trkpt lat="54.832537" lon="83.098537">
<time>1970-01-01T00:00:01.000Z</time>
</trkpt>
<trkpt lat="54.832611" lon="83.096868">
<time>1970-01-01T00:00:01.000Z</time>
</trkpt>
<trkpt lat="54.833084" lon="83.095683">
<time>1970-01-01T00:00:01.000Z</time>
</trkpt>
<trkpt lat="54.833541" lon="83.094943">
<time>1970-01-01T00:00:01.000Z</time>
</trkpt>
<trkpt lat="54.833186" lon="83.095018">
<time>1970-01-01T00:00:01.000Z</time>
</trkpt>
<trkpt lat="54.832679" lon="83.095383">
<time>1970-01-01T00:00:01.000Z</time>
</trkpt>
<trkpt lat="54.832358" lon="83.095571">
<time>1970-01-01T00:00:01.000Z</time>
</trkpt>
<trkpt lat="54.831879" lon="83.095747">
<time>1970-01-01T00:00:01.000Z</time>
</trkpt>
<trkpt lat="54.831514" lon="83.095506">
<time>1970-01-01T00:00:01.000Z</time>
</trkpt>
<trkpt lat="54.830510" lon="83.095619">
<time>1970-01-01T00:00:01.000Z</time>
</trkpt>
<trkpt lat="54.830368" lon="83.096542">
<time>1970-01-01T00:00:01.000Z</time>
</trkpt>
<trkpt lat="54.829963" lon="83.097357">
<time>1970-01-01T00:00:01.000Z</time>
</trkpt>
<trkpt lat="54.829812" lon="83.097550">
<time>1970-01-01T00:00:01.000Z</time>
</trkpt>
<trkpt lat="54.829552" lon="83.097583">
<time>1970-01-01T00:00:01.000Z</time>
</trkpt>
<trkpt lat="54.828690" lon="83.096912">
<time>1970-01-01T00:00:01.000Z</time>
</trkpt>
<trkpt lat="54.827834" lon="83.096102">
<time>1970-01-01T00:00:01.000Z</time>
</trkpt>
<trkpt lat="54.826858" lon="83.095661">
<time>1970-01-01T00:00:01.000Z</time>
</trkpt>
<trkpt lat="54.825606" lon="83.095662">
<time>1970-01-01T00:00:01.000Z</time>
</trkpt>
<trkpt lat="54.824512" lon="83.095532">
<time>1970-01-01T00:00:01.000Z</time>
</trkpt>
<trkpt lat="54.824009" lon="83.096086">
<time>1970-01-01T00:00:01.000Z</time>
</trkpt>
<trkpt lat="54.823576" lon="83.096027">
<time>1970-01-01T00:00:01.000Z</time>
</trkpt>
<trkpt lat="54.823276" lon="83.096178">
<time>1970-01-01T00:00:01.000Z</time>
</trkpt>
<trkpt lat="54.822658" lon="83.095823">
<time>1970-01-01T00:00:01.000Z</time>
</trkpt>
<trkpt lat="54.822355" lon="83.095881">
<time>1970-01-01T00:00:01.000Z</time>
</trkpt>
<trkpt lat="54.822658" lon="83.095812">
<time>1970-01-01T00:00:01.000Z</time>
</trkpt>
<trkpt lat="54.823273" lon="83.096176">
<time>1970-01-01T00:00:01.000Z</time>
</trkpt>
<trkpt lat="54.823573" lon="83.096026">
<time>1970-01-01T00:00:01.000Z</time>
</trkpt>
<trkpt lat="54.824012" lon="83.096081">
<time>1970-01-01T00:00:01.000Z</time>
</trkpt>
<trkpt lat="54.824506" lon="83.095533">
<time>1970-01-01T00:00:01.000Z</time>
</trkpt>
<trkpt lat="54.825612" lon="83.095662">
<time>1970-01-01T00:00:01.000Z</time>
</trkpt>
<trkpt lat="54.826861" lon="83.095662">
<time>1970-01-01T00:00:01.000Z</time>
</trkpt>
<trkpt lat="54.827837" lon="83.096102">
<time>1970-01-01T00:00:01.000Z</time>
</trkpt>
<trkpt lat="54.828690" lon="83.096918">
<time>1970-01-01T00:00:01.000Z</time>
</trkpt>
<trkpt lat="54.829549" lon="83.097582">
<time>1970-01-01T00:00:01.000Z</time>
</trkpt>
<trkpt lat="54.829815" lon="83.097551">
<time>1970-01-01T00:00:01.000Z</time>
</trkpt>
<trkpt lat="54.829963" lon="83.097358">
<time>1970-01-01T00:00:01.000Z</time>
</trkpt>
<trkpt lat="54.830371" lon="83.096542">
<time>1970-01-01T00:00:01.000Z</time>
</trkpt>
<trkpt lat="54.830513" lon="83.095618">
<time>1970-01-01T00:00:01.000Z</time>
</trkpt>
<trkpt lat="54.831514" lon="83.095512">
<time>1970-01-01T00:00:01.000Z</time>
</trkpt>
<trkpt lat="54.831879" lon="83.095748">
<time>1970-01-01T00:00:01.000Z</time>
</trkpt>
<trkpt lat="54.832361" lon="83.095576">
<time>1970-01-01T00:00:01.000Z</time>
</trkpt>
<trkpt lat="54.833189" lon="83.095018">
<time>1970-01-01T00:00:01.000Z</time>
</trkpt>
<trkpt lat="54.833544" lon="83.094943">
<time>1970-01-01T00:00:01.000Z</time>
</trkpt>
<trkpt lat="54.833696" lon="83.094696">
<time>1970-01-01T00:00:01.000Z</time>
</trkpt>
<trkpt lat="54.833807" lon="83.094041">
<time>1970-01-01T00:00:01.000Z</time>
</trkpt>
<trkpt lat="54.831687" lon="83.088892">
<time>1970-01-01T00:00:01.000Z</time>
</trkpt>
<trkpt lat="54.831434" lon="83.088462">
<time>1970-01-01T00:00:01.000Z</time>
</trkpt>
<trkpt lat="54.831119" lon="83.088280">
<time>1970-01-01T00:00:01.000Z</time>
</trkpt>
<trkpt lat="54.831249" lon="83.088055">
<time>1970-01-01T00:00:01.000Z</time>
</trkpt>
<trkpt lat="54.830791" lon="83.087035">
<time>1970-01-01T00:00:01.000Z</time>
</trkpt>
<trkpt lat="54.830587" lon="83.087347">
<time>1970-01-01T00:00:01.000Z</time>
</trkpt>
<trkpt lat="54.830248" lon="83.086810">
<time>1970-01-01T00:00:01.000Z</time>
</trkpt>
<trkpt lat="54.829747" lon="83.086392">
<time>1970-01-01T00:00:01.000Z</time>
</trkpt>
<trkpt lat="54.829284" lon="83.085254">
<time>1970-01-01T00:00:01.000Z</time>
</trkpt>
<trkpt lat="54.828907" lon="83.082916">
<time>1970-01-01T00:00:01.000Z</time>
</trkpt>
<trkpt lat="54.829314" lon="83.082325">
<time>1970-01-01T00:00:01.000Z</time>
</trkpt>
<trkpt lat="54.830433" lon="83.081692">
<time>1970-01-01T00:00:01.000Z</time>
</trkpt>
<trkpt lat="54.830859" lon="83.080941">
<time>1970-01-01T00:00:01.000Z</time>
</trkpt>
<trkpt lat="54.831459" lon="83.080480">
<time>1970-01-01T00:00:01.000Z</time>
</trkpt>
<trkpt lat="54.832268" lon="83.080587">
<time>1970-01-01T00:00:01.000Z</time>
</trkpt>
<trkpt lat="54.833702" lon="83.077948">
<time>1970-01-01T00:00:01.000Z</time>
</trkpt>
<trkpt lat="54.834221" lon="83.077530">
<time>1970-01-01T00:00:01.000Z</time>
</trkpt>
<trkpt lat="54.834413" lon="83.075459">
<time>1970-01-01T00:00:01.000Z</time>
</trkpt>
<trkpt lat="54.834042" lon="83.074676">
<time>1970-01-01T00:00:01.000Z</time>
</trkpt>
<trkpt lat="54.833764" lon="83.073978">
<time>1970-01-01T00:00:01.000Z</time>
</trkpt>
<trkpt lat="54.833609" lon="83.073399">
<time>1970-01-01T00:00:01.000Z</time>
</trkpt>
<trkpt lat="54.833720" lon="83.072873">
<time>1970-01-01T00:00:01.000Z</time>
</trkpt>
<trkpt lat="54.834240" lon="83.072541">
<time>1970-01-01T00:00:01.000Z</time>
</trkpt>
<trkpt lat="54.834091" lon="83.071715">
<time>1970-01-01T00:00:01.000Z</time>
</trkpt>
<trkpt lat="54.833758" lon="83.070728">
<time>1970-01-01T00:00:01.000Z</time>
</trkpt>
<trkpt lat="54.833776" lon="83.069494">
<time>1970-01-01T00:00:01.000Z</time>
</trkpt>
<trkpt lat="54.833968" lon="83.067831">
<time>1970-01-01T00:00:01.000Z</time>
</trkpt>
<trkpt lat="54.834277" lon="83.067026">
<time>1970-01-01T00:00:01.000Z</time>
</trkpt>
<trkpt lat="54.834277" lon="83.066350">
<time>1970-01-01T00:00:01.000Z</time>
</trkpt>
<trkpt lat="54.834209" lon="83.065884">
<time>1970-01-01T00:00:01.000Z</time>
</trkpt>
<trkpt lat="54.834138" lon="83.065846">
<time>1970-01-01T00:00:01.000Z</time>
</trkpt>
<trkpt lat="54.833952" lon="83.065599">
<time>1970-01-01T00:00:01.000Z</time>
</trkpt>
<trkpt lat="54.833674" lon="83.064172">
<time>1970-01-01T00:00:01.000Z</time>
</trkpt>
<trkpt lat="54.833461" lon="83.063539">
<time>1970-01-01T00:00:01.000Z</time>
</trkpt>
<trkpt lat="54.833418" lon="83.062595">
<time>1970-01-01T00:00:01.000Z</time>
</trkpt>
<trkpt lat="54.833226" lon="83.061662">
<time>1970-01-01T00:00:01.000Z</time>
</trkpt>
<trkpt lat="54.832846" lon="83.061082">
<time>1970-01-01T00:00:01.000Z</time>
</trkpt>
<trkpt lat="54.832760" lon="83.060170">
<time>1970-01-01T00:00:01.000Z</time>
</trkpt>
<trkpt lat="54.831453" lon="83.057553">
<time>1970-01-01T00:00:01.000Z</time>
</trkpt>
<trkpt lat="54.831314" lon="83.056962">
<time>1970-01-01T00:00:01.000Z</time>
</trkpt>
<trkpt lat="54.831388" lon="83.056222">
<time>1970-01-01T00:00:01.000Z</time>
</trkpt>
<trkpt lat="54.831184" lon="83.055423">
<time>1970-01-01T00:00:01.000Z</time>
</trkpt>
<trkpt lat="54.831317" lon="83.054436">
<time>1970-01-01T00:00:01.000Z</time>
</trkpt>
<trkpt lat="54.831493" lon="83.054114">
<time>1970-01-01T00:00:01.000Z</time>
</trkpt>
<trkpt lat="54.831811" lon="83.053803">
<time>1970-01-01T00:00:01.000Z</time>
</trkpt>
<trkpt lat="54.832185" lon="83.053320">
<time>1970-01-01T00:00:01.000Z</time>
</trkpt>
<trkpt lat="54.832602" lon="83.053100">
<time>1970-01-01T00:00:01.000Z</time>
</trkpt>
<trkpt lat="54.833050" lon="83.053111">
<time>1970-01-01T00:00:01.000Z</time>
</trkpt>
<trkpt lat="54.833387" lon="83.052993">
<time>1970-01-01T00:00:01.000Z</time>
</trkpt>
<trkpt lat="54.833572" lon="83.052462">
<time>1970-01-01T00:00:01.000Z</time>
</trkpt>
<trkpt lat="54.834403" lon="83.053299">
<time>1970-01-01T00:00:01.000Z</time>
</trkpt>
<trkpt lat="54.834709" lon="83.053561">
<time>1970-01-01T00:00:01.000Z</time>
</trkpt>
<trkpt lat="54.834669" lon="83.053738">
<time>1970-01-01T00:00:01.000Z</time>
</trkpt>
<trkpt lat="54.835556" lon="83.054441">
<time>1970-01-01T00:00:01.000Z</time>
</trkpt>
<trkpt lat="54.835658" lon="83.054489">
<time>1970-01-01T00:00:01.000Z</time>
</trkpt>
<trkpt lat="54.836677" lon="83.055455">
<time>1970-01-01T00:00:01.000Z</time>
</trkpt>
<trkpt lat="54.837304" lon="83.056136">
<time>1970-01-01T00:00:01.000Z</time>
</trkpt>
<trkpt lat="54.837555" lon="83.056496">
<time>1970-01-01T00:00:01.000Z</time>
</trkpt>
<trkpt lat="54.837873" lon="83.056678">
<time>1970-01-01T00:00:01.000Z</time>
</trkpt>
<trkpt lat="54.838840" lon="83.057526">
<time>1970-01-01T00:00:01.000Z</time>
</trkpt>
<trkpt lat="54.838954" lon="83.057762">
<time>1970-01-01T00:00:01.000Z</time>
</trkpt>
<trkpt lat="54.839241" lon="83.058073">
<time>1970-01-01T00:00:01.000Z</time>
</trkpt>
<trkpt lat="54.839272" lon="83.058046">
<time>1970-01-01T00:00:01.000Z</time>
</trkpt>
<trkpt lat="54.839621" lon="83.058658">
<time>1970-01-01T00:00:01.000Z</time>
</trkpt>
<trkpt lat="54.834206" lon="83.065878">
<time>1970-01-01T00:00:01.000Z</time>
</trkpt>
<trkpt lat="54.839621" lon="83.058668">
<time>1970-01-01T00:00:01.000Z</time>
</trkpt>
<trkpt lat="54.840270" lon="83.059516">
<time>1970-01-01T00:00:01.000Z</time>
</trkpt>
<trkpt lat="54.840715" lon="83.059516">
<time>1970-01-01T00:00:01.000Z</time>
</trkpt>
<trkpt lat="54.844422" lon="83.062906">
<time>1970-01-01T00:00:01.000Z</time>
</trkpt>
<trkpt lat="54.844866" lon="83.062713">
<time>1970-01-01T00:00:01.000Z</time>
</trkpt>
<trkpt lat="54.846225" lon="83.063807">
<time>1970-01-01T00:00:01.000Z</time>
</trkpt>
<trkpt lat="54.846633" lon="83.063185">
<time>1970-01-01T00:00:01.000Z</time>
</trkpt>
<trkpt lat="54.845929" lon="83.055525">
<time>1970-01-01T00:00:01.000Z</time>
</trkpt>
<trkpt lat="54.844743" lon="83.045762">
<time>1970-01-01T00:00:01.000Z</time>
</trkpt>
<trkpt lat="54.844693" lon="83.044195">
<time>1970-01-01T00:00:01.000Z</time>
</trkpt>
<trkpt lat="54.845361" lon="83.041921">
<time>1970-01-01T00:00:01.000Z</time>
</trkpt>
<trkpt lat="54.848820" lon="83.040451">
<time>1970-01-01T00:00:01.000Z</time>
</trkpt>
<trkpt lat="54.849190" lon="83.040633">
<time>1970-01-01T00:00:01.000Z</time>
</trkpt>
<trkpt lat="54.849512" lon="83.040226">
<time>1970-01-01T00:00:01.000Z</time>
</trkpt>
<trkpt lat="54.849314" lon="83.039668">
<time>1970-01-01T00:00:01.000Z</time>
</trkpt>
<trkpt lat="54.849018" lon="83.039346">
<time>1970-01-01T00:00:01.000Z</time>
</trkpt>
<trkpt lat="54.848153" lon="83.035955">
<time>1970-01-01T00:00:01.000Z</time>
</trkpt>
<trkpt lat="54.847387" lon="83.035569">
<time>1970-01-01T00:00:01.000Z</time>
</trkpt>
<trkpt lat="54.845237" lon="83.036685">
<time>1970-01-01T00:00:01.000Z</time>
</trkpt>
<trkpt lat="54.844459" lon="83.035548">
<time>1970-01-01T00:00:01.000Z</time>
</trkpt>
<trkpt lat="54.843087" lon="83.035870">
<time>1970-01-01T00:00:01.000Z</time>
</trkpt>
<trkpt lat="54.842185" lon="83.034432">
<time>1970-01-01T00:00:01.000Z</time>
</trkpt>
<trkpt lat="54.841160" lon="83.014648">
<time>1970-01-01T00:00:01.000Z</time>
</trkpt>
<trkpt lat="54.841753" lon="83.007245">
<time>1970-01-01T00:00:01.000Z</time>
</trkpt>
<trkpt lat="54.843001" lon="83.002331">
<time>1970-01-01T00:00:01.000Z</time>
</trkpt>
<trkpt lat="54.844422" lon="82.998812">
<time>1970-01-01T00:00:01.000Z</time>
</trkpt>
<trkpt lat="54.848610" lon="82.990487">
<time>1970-01-01T00:00:01.000Z</time>
</trkpt>
<trkpt lat="54.852890" lon="82.981217">
<time>1970-01-01T00:00:01.000Z</time>
</trkpt>
<trkpt lat="54.851229" lon="82.977065">
<time>1970-01-01T00:00:01.000Z</time>
</trkpt>
<trkpt lat="54.850549" lon="82.978106">
<time>1970-01-01T00:00:01.000Z</time>
</trkpt>
<trkpt lat="54.848091" lon="82.973042">
<time>1970-01-01T00:00:01.000Z</time>
</trkpt>
<trkpt lat="54.847881" lon="82.972205">
<time>1970-01-01T00:00:01.000Z</time>
</trkpt>
<trkpt lat="54.847609" lon="82.970874">
<time>1970-01-01T00:00:01.000Z</time>
</trkpt>
<trkpt lat="54.847680" lon="82.969614">
<time>1970-01-01T00:00:01.000Z</time>
</trkpt>
<trkpt lat="54.847538" lon="82.969099">
<time>1970-01-01T00:00:01.000Z</time>
</trkpt>
<trkpt lat="54.847492" lon="82.968777">
<time>1970-01-01T00:00:01.000Z</time>
</trkpt>
<trkpt lat="54.847526" lon="82.968439">
<time>1970-01-01T00:00:01.000Z</time>
</trkpt>
<trkpt lat="54.847353" lon="82.967715">
<time>1970-01-01T00:00:01.000Z</time>
</trkpt>
<trkpt lat="54.847980" lon="82.966594">
<time>1970-01-01T00:00:01.000Z</time>
</trkpt>
<trkpt lat="54.849067" lon="82.966744">
<time>1970-01-01T00:00:01.000Z</time>
</trkpt>
<trkpt lat="54.847986" lon="82.966594">
<time>1970-01-01T00:00:01.000Z</time>
</trkpt>
<trkpt lat="54.847359" lon="82.967709">
<time>1970-01-01T00:00:01.000Z</time>
</trkpt>
<trkpt lat="54.846547" lon="82.968299">
<time>1970-01-01T00:00:01.000Z</time>
</trkpt>
<trkpt lat="54.847155" lon="82.968959">
<time>1970-01-01T00:00:01.000Z</time>
</trkpt>
<trkpt lat="54.847538" lon="82.969109">
<time>1970-01-01T00:00:01.000Z</time>
</trkpt>
<trkpt lat="54.847161" lon="82.968959">
<time>1970-01-01T00:00:01.000Z</time>
</trkpt>
<trkpt lat="54.846547" lon="82.968294">
<time>1970-01-01T00:00:01.000Z</time>
</trkpt>
<trkpt lat="54.846065" lon="82.968128">
<time>1970-01-01T00:00:01.000Z</time>
</trkpt>
<trkpt lat="54.846012" lon="82.967811">
<time>1970-01-01T00:00:01.000Z</time>
</trkpt>
<trkpt lat="54.845725" lon="82.967543">
<time>1970-01-01T00:00:01.000Z</time>
</trkpt>
<trkpt lat="54.845574" lon="82.967108">
<time>1970-01-01T00:00:01.000Z</time>
</trkpt>
<trkpt lat="54.844428" lon="82.964995">
<time>1970-01-01T00:00:01.000Z</time>
</trkpt>
<trkpt lat="54.844347" lon="82.963654">
<time>1970-01-01T00:00:01.000Z</time>
</trkpt>
<trkpt lat="54.843977" lon="82.961562">
<time>1970-01-01T00:00:01.000Z</time>
</trkpt>
<trkpt lat="54.842982" lon="82.959019">
<time>1970-01-01T00:00:01.000Z</time>
</trkpt>
<trkpt lat="54.842259" lon="82.957549">
<time>1970-01-01T00:00:01.000Z</time>
</trkpt>
<trkpt lat="54.841518" lon="82.956465">
<time>1970-01-01T00:00:01.000Z</time>
</trkpt>
<trkpt lat="54.841153" lon="82.955832">
<time>1970-01-01T00:00:01.000Z</time>
</trkpt>
<trkpt lat="54.840888" lon="82.955242">
<time>1970-01-01T00:00:01.000Z</time>
</trkpt>
<trkpt lat="54.840863" lon="82.954953">
<time>1970-01-01T00:00:01.000Z</time>
</trkpt>
<trkpt lat="54.841184" lon="82.954609">
<time>1970-01-01T00:00:01.000Z</time>
</trkpt>
<trkpt lat="54.841364" lon="82.954277">
<time>1970-01-01T00:00:01.000Z</time>
</trkpt>
<trkpt lat="54.840740" lon="82.953397">
<time>1970-01-01T00:00:01.000Z</time>
</trkpt>
<trkpt lat="54.840066" lon="82.952914">
<time>1970-01-01T00:00:01.000Z</time>
</trkpt>
<trkpt lat="54.839343" lon="82.952678">
<time>1970-01-01T00:00:01.000Z</time>
</trkpt>
<trkpt lat="54.838781" lon="82.951477">
<time>1970-01-01T00:00:01.000Z</time>
</trkpt>
<trkpt lat="54.838367" lon="82.951026">
<time>1970-01-01T00:00:01.000Z</time>
</trkpt>
<trkpt lat="54.838114" lon="82.950608">
<time>1970-01-01T00:00:01.000Z</time>
</trkpt>
<trkpt lat="54.837694" lon="82.949578">
<time>1970-01-01T00:00:01.000Z</time>
</trkpt>
<trkpt lat="54.837385" lon="82.949170">
<time>1970-01-01T00:00:01.000Z</time>
</trkpt>
<trkpt lat="54.836798" lon="82.947721">
<time>1970-01-01T00:00:01.000Z</time>
</trkpt>
<trkpt lat="54.836680" lon="82.947292">
<time>1970-01-01T00:00:01.000Z</time>
</trkpt>
<trkpt lat="54.836007" lon="82.945490">
<time>1970-01-01T00:00:01.000Z</time>
</trkpt>
<trkpt lat="54.835568" lon="82.943398">
<time>1970-01-01T00:00:01.000Z</time>
</trkpt>
<trkpt lat="54.834932" lon="82.941585">
<time>1970-01-01T00:00:01.000Z</time>
</trkpt>
<trkpt lat="54.834209" lon="82.939750">
<time>1970-01-01T00:00:01.000Z</time>
</trkpt>
<trkpt lat="54.834011" lon="82.939407">
<time>1970-01-01T00:00:01.000Z</time>
</trkpt>
<trkpt lat="54.833943" lon="82.939117">
<time>1970-01-01T00:00:01.000Z</time>
</trkpt>
<trkpt lat="54.833720" lon="82.938527">
<time>1970-01-01T00:00:01.000Z</time>
</trkpt>
<trkpt lat="54.832719" lon="82.934074">
<time>1970-01-01T00:00:01.000Z</time>
</trkpt>
<trkpt lat="54.833424" lon="82.932283">
<time>1970-01-01T00:00:01.000Z</time>
</trkpt>
<trkpt lat="54.833504" lon="82.931800">
<time>1970-01-01T00:00:01.000Z</time>
</trkpt>
<trkpt lat="54.833479" lon="82.931381">
<time>1970-01-01T00:00:01.000Z</time>
</trkpt>
<trkpt lat="54.833720" lon="82.931371">
<time>1970-01-01T00:00:01.000Z</time>
</trkpt>
<trkpt lat="54.834431" lon="82.931993">
<time>1970-01-01T00:00:01.000Z</time>
</trkpt>
<trkpt lat="54.835797" lon="82.931575">
<time>1970-01-01T00:00:01.000Z</time>
</trkpt>
<trkpt lat="54.836217" lon="82.931188">
<time>1970-01-01T00:00:01.000Z</time>
</trkpt>
<trkpt lat="54.836081" lon="82.930073">
<time>1970-01-01T00:00:01.000Z</time>
</trkpt>
<trkpt lat="54.835896" lon="82.929354">
<time>1970-01-01T00:00:01.000Z</time>
</trkpt>
<trkpt lat="54.835414" lon="82.928506">
<time>1970-01-01T00:00:01.000Z</time>
</trkpt>
</trkseg>
</trk>
</gpx>